{
  "type": "FeatureCollection",
  "features": [
    {
      "type": "Feature",
      "properties": { "name": "Residential Zone A", "type": "Residential" },
      "geometry": {
        "type": "Polygon",
        "coordinates": [[[77.99, 30.30], [78.03, 30.30], [78.03, 30.33], [77.99, 30.33], [77.99, 30.30]]]
      }
    },
    {
      "type": "Feature",
      "properties": { "name": "Commercial Zone", "type": "Commercial" },
      "geometry": {
        "type": "Polygon",
        "coordinates": [[[78.03, 30.305], [78.05, 30.305], [78.05, 30.32], [78.03, 30.32], [78.03, 30.305]]]
      }
    }
  ]
}